*******************************************************************************
Ephemeris / WWW_USER Mon Jul 15 19:28:54 2024 Pasadena, USA      / Horizons    
*******************************************************************************
Target body name: Hale-Bopp (C/1995 O1)           {source: JPL#226}
Center body name: Earth (399)                     {source: DE441}
Center-site name: Gemini South Obs., Cerro Pachon
*******************************************************************************
Start time      : A.D. 2019-Jan-27 23:53:00.0000 UT      
Stop  time      : A.D. 2019-Jan-28 09:58:00.0000 UT      
Step-size       : 1 minutes
*******************************************************************************
Target pole/equ : undefined
Target radii    : 30. km                                                       
Center geodetic : 289.2634, -30.2406227, 2.71233  {E-lon(deg),Lat(deg),Alt(km)}
Center cylindric: 289.2634,5517.21435,-3194.81213 {E-lon(deg),Dxy(km),Dz(km)}
Center pole/equ : ITRF93                          {East-longitude positive}
Center radii    : 6378.137, 6378.137, 6356.752 km {Equator_a, b, pole_c}       
Target primary  : Sun
Vis. interferer : MOON (R_eq= 1737.400) km        {source: DE441}
Rel. light bend : Sun                             {source: DE441}
Rel. lght bnd GM: 1.3271E+11 km^3/s^2                                          
Small-body perts: Yes                             {source: SB441-N16}
Atmos refraction: NO (AIRLESS)
RA format       : HMS
Time format     : CAL 
Calendar mode   : Mixed Julian/Gregorian
RTS-only print  : NO       
EOP file        : eop.240715.p241008                                           
EOP coverage    : DATA-BASED 1962-JAN-20 TO 2024-JUL-15. PREDICTS-> 2024-OCT-07
Units conversion: 1 au= 149597870.700 km, c= 299792.458 km/s, 1 day= 86400.0 s 
Table cut-offs 1: Elevation (-90.0deg=NO ),Airmass (>38.000=NO), Daylight (YES)
Table cut-offs 2: Solar elongation (  0.0,180.0=NO ),Local Hour Angle( 0.0=NO )
Table cut-offs 3: RA/DEC angular rate (     0.0=NO )                           
*******************************************************************************
Initial IAU76/J2000 heliocentric ecliptic osculating elements (au, days, deg.):
  EPOCH=  2459837.5 ! 2022-Sep-15.0000000 (TDB)    RMSW= n.a.                  
   EC= .9949810027633206   QR= .890537663547794    TP= 2450537.1349071441      
   OM= 282.7334213961641   W= 130.4146670659176    IN= 89.28759424740302       
  Equivalent ICRF heliocentric cartesian coordinates (au, au/d):
   X= 3.907631452214869E+00  Y=-1.373895334060347E+00  Z=-4.624358508575312E+01
  VX= 3.778244409519935E-04 VY=-5.803173067116371E-04 VZ=-3.255716412104052E-03
Comet physical (GM= km^3/s^2; RAD= km):                                        
   GM= n.a.                RAD= 30.                                            
   M1=  4.8      M2=  n.a.     k1=  4.     k2= n.a.     PHCOF= n.a.            
*******************************************************************************
 Date__(UT)__HR:MN     R.A._________(ICRF)_________DEC
******************************************************
$$SOE
 2019-Jan-27 23:53 C   22 47 06.351453 -84 18 22.07752
 2019-Jan-27 23:54 C   22 47 06.381085 -84 18 22.04021
 2019-Jan-27 23:55 C   22 47 06.410718 -84 18 22.00290
 2019-Jan-27 23:56 C   22 47 06.440355 -84 18 21.96559
 2019-Jan-27 23:57 C   22 47 06.469993 -84 18 21.92828
 2019-Jan-27 23:58 C   22 47 06.499634 -84 18 21.89096
 2019-Jan-27 23:59 C   22 47 06.529277 -84 18 21.85365
 2019-Jan-28 00:00 C   22 47 06.558923 -84 18 21.81634
 2019-Jan-28 00:01 C   22 47 06.588571 -84 18 21.77902
 2019-Jan-28 00:02 C   22 47 06.618221 -84 18 21.74171
 2019-Jan-28 00:03 C   22 47 06.647874 -84 18 21.70439
 2019-Jan-28 00:04 C   22 47 06.677529 -84 18 21.66708
 2019-Jan-28 00:05 C   22 47 06.707186 -84 18 21.62976
 2019-Jan-28 00:06 C   22 47 06.736846 -84 18 21.59245
 2019-Jan-28 00:07 C   22 47 06.766508 -84 18 21.55513
 2019-Jan-28 00:08 C   22 47 06.796172 -84 18 21.51781
 2019-Jan-28 00:09 C   22 47 06.825839 -84 18 21.48050
 2019-Jan-28 00:10 C   22 47 06.855509 -84 18 21.44318
 2019-Jan-28 00:11 N   22 47 06.885180 -84 18 21.40586
 2019-Jan-28 00:12 N   22 47 06.914854 -84 18 21.36854
 2019-Jan-28 00:13 N   22 47 06.944531 -84 18 21.33123
 2019-Jan-28 00:14 N   22 47 06.974210 -84 18 21.29391
 2019-Jan-28 00:15 N   22 47 07.003891 -84 18 21.25659
 2019-Jan-28 00:16 N   22 47 07.033575 -84 18 21.21927
 2019-Jan-28 00:17 N   22 47 07.063261 -84 18 21.18195
 2019-Jan-28 00:18 N   22 47 07.092949 -84 18 21.14463
 2019-Jan-28 00:19 N   22 47 07.122640 -84 18 21.10731
 2019-Jan-28 00:20 N   22 47 07.152333 -84 18 21.06999
 2019-Jan-28 00:21 N   22 47 07.182029 -84 18 21.03267
 2019-Jan-28 00:22 N   22 47 07.211727 -84 18 20.99535
 2019-Jan-28 00:23 N   22 47 07.241427 -84 18 20.95803
 2019-Jan-28 00:24 N   22 47 07.271130 -84 18 20.92071
 2019-Jan-28 00:25 N   22 47 07.300835 -84 18 20.88339
 2019-Jan-28 00:26 N   22 47 07.330543 -84 18 20.84606
 2019-Jan-28 00:27 N   22 47 07.360253 -84 18 20.80874
 2019-Jan-28 00:28 N   22 47 07.389966 -84 18 20.77142
 2019-Jan-28 00:29 N   22 47 07.419681 -84 18 20.73410
 2019-Jan-28 00:30 N   22 47 07.449398 -84 18 20.69678
 2019-Jan-28 00:31 N   22 47 07.479118 -84 18 20.65946
 2019-Jan-28 00:32 N   22 47 07.508840 -84 18 20.62214
 2019-Jan-28 00:33 N   22 47 07.538565 -84 18 20.58482
 2019-Jan-28 00:34 N   22 47 07.568292 -84 18 20.54749
 2019-Jan-28 00:35 N   22 47 07.598022 -84 18 20.51017
 2019-Jan-28 00:36 N   22 47 07.627754 -84 18 20.47285
 2019-Jan-28 00:37 N   22 47 07.657488 -84 18 20.43553
 2019-Jan-28 00:38 N   22 47 07.687225 -84 18 20.39821
 2019-Jan-28 00:39 N   22 47 07.716964 -84 18 20.36089
 2019-Jan-28 00:40 N   22 47 07.746706 -84 18 20.32357
 2019-Jan-28 00:41 N   22 47 07.776450 -84 18 20.28625
 2019-Jan-28 00:42 A   22 47 07.806196 -84 18 20.24893
 2019-Jan-28 00:43 A   22 47 07.835945 -84 18 20.21161
 2019-Jan-28 00:44 A   22 47 07.865697 -84 18 20.17429
 2019-Jan-28 00:45 A   22 47 07.895451 -84 18 20.13696
 2019-Jan-28 00:46 A   22 47 07.925207 -84 18 20.09964
 2019-Jan-28 00:47 A   22 47 07.954966 -84 18 20.06232
 2019-Jan-28 00:48 A   22 47 07.984727 -84 18 20.02501
 2019-Jan-28 00:49 A   22 47 08.014491 -84 18 19.98769
 2019-Jan-28 00:50 A   22 47 08.044257 -84 18 19.95037
 2019-Jan-28 00:51 A   22 47 08.074025 -84 18 19.91305
 2019-Jan-28 00:52 A   22 47 08.103796 -84 18 19.87573
 2019-Jan-28 00:53 A   22 47 08.133570 -84 18 19.83841
 2019-Jan-28 00:54 A   22 47 08.163346 -84 18 19.80109
 2019-Jan-28 00:55 A   22 47 08.193124 -84 18 19.76377
 2019-Jan-28 00:56 A   22 47 08.222905 -84 18 19.72646
 2019-Jan-28 00:57 A   22 47 08.252688 -84 18 19.68914
 2019-Jan-28 00:58 A   22 47 08.282473 -84 18 19.65182
 2019-Jan-28 00:59 A   22 47 08.312262 -84 18 19.61451
 2019-Jan-28 01:00 A   22 47 08.342052 -84 18 19.57719
 2019-Jan-28 01:01 A   22 47 08.371845 -84 18 19.53988
 2019-Jan-28 01:02 A   22 47 08.401640 -84 18 19.50256
 2019-Jan-28 01:03 A   22 47 08.431438 -84 18 19.46525
 2019-Jan-28 01:04 A   22 47 08.461239 -84 18 19.42793
 2019-Jan-28 01:05 A   22 47 08.491041 -84 18 19.39062
 2019-Jan-28 01:06 A   22 47 08.520847 -84 18 19.35331
 2019-Jan-28 01:07 A   22 47 08.550654 -84 18 19.31599
 2019-Jan-28 01:08 A   22 47 08.580465 -84 18 19.27868
 2019-Jan-28 01:09 A   22 47 08.610277 -84 18 19.24137
 2019-Jan-28 01:10 A   22 47 08.640092 -84 18 19.20406
 2019-Jan-28 01:11 A   22 47 08.669910 -84 18 19.16675
 2019-Jan-28 01:12 A   22 47 08.699729 -84 18 19.12944
 2019-Jan-28 01:13 A   22 47 08.729552 -84 18 19.09213
 2019-Jan-28 01:14 A   22 47 08.759377 -84 18 19.05482
 2019-Jan-28 01:15     22 47 08.789204 -84 18 19.01751
 2019-Jan-28 01:16     22 47 08.819034 -84 18 18.98020
 2019-Jan-28 01:17     22 47 08.848866 -84 18 18.94290
 2019-Jan-28 01:18     22 47 08.878700 -84 18 18.90559
 2019-Jan-28 01:19     22 47 08.908537 -84 18 18.86828
 2019-Jan-28 01:20     22 47 08.938377 -84 18 18.83098
 2019-Jan-28 01:21     22 47 08.968219 -84 18 18.79368
 2019-Jan-28 01:22     22 47 08.998063 -84 18 18.75637
 2019-Jan-28 01:23     22 47 09.027910 -84 18 18.71907
 2019-Jan-28 01:24     22 47 09.057759 -84 18 18.68177
 2019-Jan-28 01:25     22 47 09.087611 -84 18 18.64447
 2019-Jan-28 01:26     22 47 09.117465 -84 18 18.60717
 2019-Jan-28 01:27     22 47 09.147321 -84 18 18.56987
 2019-Jan-28 01:28     22 47 09.177180 -84 18 18.53257
 2019-Jan-28 01:29     22 47 09.207041 -84 18 18.49527
 2019-Jan-28 01:30     22 47 09.236905 -84 18 18.45797
 2019-Jan-28 01:31     22 47 09.266772 -84 18 18.42068
 2019-Jan-28 01:32     22 47 09.296640 -84 18 18.38338
 2019-Jan-28 01:33     22 47 09.326511 -84 18 18.34609
 2019-Jan-28 01:34     22 47 09.356385 -84 18 18.30879
 2019-Jan-28 01:35     22 47 09.386261 -84 18 18.27150
 2019-Jan-28 01:36     22 47 09.416139 -84 18 18.23421
 2019-Jan-28 01:37     22 47 09.446020 -84 18 18.19692
 2019-Jan-28 01:38     22 47 09.475903 -84 18 18.15963
 2019-Jan-28 01:39     22 47 09.505789 -84 18 18.12234
 2019-Jan-28 01:40     22 47 09.535677 -84 18 18.08505
 2019-Jan-28 01:41     22 47 09.565567 -84 18 18.04777
 2019-Jan-28 01:42     22 47 09.595460 -84 18 18.01048
 2019-Jan-28 01:43     22 47 09.625356 -84 18 17.97319
 2019-Jan-28 01:44     22 47 09.655253 -84 18 17.93591
 2019-Jan-28 01:45     22 47 09.685153 -84 18 17.89863
 2019-Jan-28 01:46     22 47 09.715056 -84 18 17.86135
 2019-Jan-28 01:47     22 47 09.744961 -84 18 17.82407
 2019-Jan-28 01:48     22 47 09.774868 -84 18 17.78679
 2019-Jan-28 01:49     22 47 09.804778 -84 18 17.74951
 2019-Jan-28 01:50     22 47 09.834690 -84 18 17.71223
 2019-Jan-28 01:51     22 47 09.864605 -84 18 17.67496
 2019-Jan-28 01:52     22 47 09.894522 -84 18 17.63768
 2019-Jan-28 01:53     22 47 09.924441 -84 18 17.60041
 2019-Jan-28 01:54     22 47 09.954363 -84 18 17.56314
 2019-Jan-28 01:55     22 47 09.984287 -84 18 17.52586
 2019-Jan-28 01:56     22 47 10.014213 -84 18 17.48859
